[{"OBJECT_NAME":"STARLINK-34096","OBJECT_ID":"2025-102X","EPOCH":"2026-03-09T12:16:41.946240","MEAN_MOTION":14.9833116,"ECCENTRICITY":0.00037929,"INCLINATION":70.0002,"RA_OF_ASC_NODE":114.9789,"ARG_OF_PERICENTER":267.5926,"MEAN_ANOMALY":92.4799,"EPHEMERIS_TYPE":0,"CLASSIFICATION_TYPE":"U","NORAD_CAT_ID":64043,"ELEMENT_SET_NO":999,"REV_AT_EPOCH":4581,"BSTAR":0.00029331627,"MEAN_MOTION_DOT":3.409e-5,"MEAN_MOTION_DDOT":0},{"OBJECT_NAME":"CZ-4B DEB","OBJECT_ID":"2017-034G","EPOCH":"2026-03-09T09:39:33.034752","MEAN_MOTION":14.99948696,"ECCENTRICITY":0.01166945,"INCLINATION":43.0793,"RA_OF_ASC_NODE":187.5221,"ARG_OF_PERICENTER":337.6416,"MEAN_ANOMALY":21.9365,"EPHEMERIS_TYPE":0,"CLASSIFICATION_TYPE":"U","NORAD_CAT_ID":43431,"ELEMENT_SET_NO":999,"REV_AT_EPOCH":46516,"BSTAR":0.0010902516,"MEAN_MOTION_DOT":0.00015701,"MEAN_MOTION_DDOT":0}]
